{
  "type": "FeatureCollection",
  "features": [
    {
      "type": "Feature",
      "properties": {
        "norad_id": 66495,
        "name": "STARLINK-35832",
        "group": "last-30-days",
        "lat": -36.658680110285346,
        "lon": 78.90285038295112,
        "alt_km": 417.44169196303574,
        "timestamp": "2025-12-11T13:55:00.913445+00:00",
        "meta_object_name": "STARLINK-35832",
        "meta_object_id": "2025-263L",
        "meta_epoch": "2025-12-11T06:00:02.999808",
        "meta_mean_motion": 15.50603336,
        "meta_eccentricity": 0.00016043,
        "meta_inclination": 43.0007,
        "meta_ra_of_asc_node": 133.8357,
        "meta_arg_of_pericenter": 248.9635,
        "meta_mean_anomaly": 6.5452,
        "meta_ephemeris_type": 0,
        "meta_classification_type": "U",
        "meta_norad_cat_id": 66495,
        "meta_element_set_no": 999,
        "meta_rev_at_epoch": 539,
        "meta_bstar": -0.00115783,
        "meta_mean_motion_dot": -0.0006774,
        "meta_mean_motion_ddot": 0,
        "tle_line1": "1 66495U 25263L   25345.25003472 -.00067740  00000+0 -11578-2 0  9999",
        "tle_line2": "2 66495  43.0007 133.8357 0001604 248.9635   6.5452 15.50603336  5395"
      },
      "geometry": {
        "type": "Point",
        "coordinates": [
          78.90285038295112,
          -36.658680110285346
        ]
      }
    },
    {
      "type": "Feature",
      "properties": {
        "norad_id": 66496,
        "name": "STARLINK-35909",
        "group": "last-30-days",
        "lat": -35.85466943070763,
        "lon": 81.04933186097989,
        "alt_km": 417.41090491303294,
        "timestamp": "2025-12-11T13:55:00.913455+00:00",
        "meta_object_name": "STARLINK-35909",
        "meta_object_id": "2025-263M",
        "meta_epoch": "2025-12-11T06:00:02.999808",
        "meta_mean_motion": 15.5060237,
        "meta_eccentricity": 0.00015038,
        "meta_inclination": 43.0006,
        "meta_ra_of_asc_node": 133.8305,
        "meta_arg_of_pericenter": 254.0932,
        "meta_mean_anomaly": 3.3337,
        "meta_ephemeris_type": 0,
        "meta_classification_type": "U",
        "meta_norad_cat_id": 66496,
        "meta_element_set_no": 999,
        "meta_rev_at_epoch": 539,
        "meta_bstar": -0.0011883767,
        "meta_mean_motion_dot": -0.000695,
        "meta_mean_motion_ddot": 0,
        "tle_line1": "1 66496U 25263M   25345.25003472 -.00069500  00000+0 -11884-2 0  9996",
        "tle_line2": "2 66496  43.0006 133.8305 0001503 254.0932   3.3337 15.50602370  5398"
      },
      "geometry": {
        "type": "Point",
        "coordinates": [
          81.04933186097989,
          -35.85466943070763
        ]
      }
    },
    {
      "type": "Feature",
      "properties": {
        "norad_id": 66497,
        "name": "STARLINK-35899",
        "group": "last-30-days",
        "lat": -35.01134339561375,
        "lon": 83.15648649246592,
        "alt_km": 417.2438629234366,
        "timestamp": "2025-12-11T13:55:00.913466+00:00",
        "meta_object_name": "STARLINK-35899",
        "meta_object_id": "2025-263N",
        "meta_epoch": "2025-12-11T06:00:02.999808",
        "meta_mean_motion": 15.50610511,
        "meta_eccentricity": 0.00015316,
        "meta_inclination": 43.0007,
        "meta_ra_of_asc_node": 133.8255,
        "meta_arg_of_pericenter": 264.3901,
        "meta_mean_anomaly": 354.9509,
        "meta_ephemeris_type": 0,
        "meta_classification_type": "U",
        "meta_norad_cat_id": 66497,
        "meta_element_set_no": 999,
        "meta_rev_at_epoch": 539,
        "meta_bstar": -0.0013211844,
        "meta_mean_motion_dot": -0.00077176,
        "meta_mean_motion_ddot": 0,
        "tle_line1": "1 66497U 25263N   25345.25003472 -.00077176  00000+0 -13212-2 0  9992",
        "tle_line2": "2 66497  43.0007 133.8255 0001531 264.3901 354.9509 15.50610511  5397"
      },
      "geometry": {
        "type": "Point",
        "coordinates": [
          83.15648649246592,
          -35.01134339561375
        ]
      }
    },
    {
      "type": "Feature",
      "properties": {
        "norad_id": 66498,
        "name": "STARLINK-35907",
        "group": "last-30-days",
        "lat": -42.203852347857335,
        "lon": 28.69476922487685,
        "alt_km": 446.75191937275576,
        "timestamp": "2025-12-11T13:55:00.913478+00:00",
        "meta_object_name": "STARLINK-35907",
        "meta_object_id": "2025-263P",
        "meta_epoch": "2025-12-11T06:00:02.999808",
        "meta_mean_motion": 15.41025874,
        "meta_eccentricity": 0.00013159,
        "meta_inclination": 43.0007,
        "meta_ra_of_asc_node": 133.9004,
        "meta_arg_of_pericenter": 261.2035,
        "meta_mean_anomaly": 327.2172,
        "meta_ephemeris_type": 0,
        "meta_classification_type": "U",
        "meta_norad_cat_id": 66498,
        "meta_element_set_no": 999,
        "meta_rev_at_epoch": 539,
        "meta_bstar": -0.015743867,
        "meta_mean_motion_dot": -0.00614172,
        "meta_mean_motion_ddot": 0,
        "tle_line1": "1 66498U 25263P   25345.25003472 -.00614172  00000+0 -15744-1 0  9997",
        "tle_line2": "2 66498  43.0007 133.9004 0001315 261.2035 327.2172 15.41025874  5396"
      },
      "geometry": {
        "type": "Point",
        "coordinates": [
          28.69476922487685,
          -42.203852347857335
        ]
      }
    },
    {
      "type": "Feature",
      "properties": {
        "norad_id": 66499,
        "name": "STARLINK-35816",
        "group": "last-30-days",
        "lat": -39.06239561228862,
        "lon": 71.35596294369876,
        "alt_km": 435.8278080085902,
        "timestamp": "2025-12-11T13:55:00.913488+00:00",
        "meta_object_name": "STARLINK-35816",
        "meta_object_id": "2025-263Q",
        "meta_epoch": "2025-12-11T06:00:02.999808",
        "meta_mean_motion": 15.45729064,
        "meta_eccentricity": 0.00012731,
        "meta_inclination": 43.0009,
        "meta_ra_of_asc_node": 133.8345,
        "meta_arg_of_pericenter": 261.8937,
        "meta_mean_anomaly": 353.8429,
        "meta_ephemeris_type": 0,
        "meta_classification_type": "U",
        "meta_norad_cat_id": 66499,
        "meta_element_set_no": 999,
        "meta_rev_at_epoch": 539,
        "meta_bstar": -0.046491304,
        "meta_mean_motion_dot": -0.02047069,
        "meta_mean_motion_ddot": 0,
        "tle_line1": "1 66499U 25263Q   25345.25003472 -.02047069  00000+0 -46491-1 0  9998",
        "tle_line2": "2 66499  43.0009 133.8345 0001273 261.8937 353.8429 15.45729064  5392"
      },
      "geometry": {
        "type": "Point",
        "coordinates": [
          71.35596294369876,
          -39.06239561228862
        ]
      }
    },
    {
      "type": "Feature",
      "properties": {
        "norad_id": 66500,
        "name": "STARLINK-35894",
        "group": "last-30-days",
        "lat": -33.250373890163985,
        "lon": -3.219650849389939,
        "alt_km": 440.1906430391364,
        "timestamp": "2025-12-11T13:55:00.913498+00:00",
        "meta_object_name": "STARLINK-35894",
        "meta_object_id": "2025-263R",
        "meta_epoch": "2025-12-11T06:00:02.999808",
        "meta_mean_motion": 15.43995435,
        "meta_eccentricity": 0.00013677,
        "meta_inclination": 43.0003,
        "meta_ra_of_asc_node": 133.9743,
        "meta_arg_of_pericenter": 270.4192,
        "meta_mean_anomaly": 288.3155,
        "meta_ephemeris_type": 0,
        "meta_classification_type": "U",
        "meta_norad_cat_id": 66500,
        "meta_element_set_no": 999,
        "meta_rev_at_epoch": 539,
        "meta_bstar": -0.043437263,
        "meta_mean_motion_dot": -0.01825778,
        "meta_mean_motion_ddot": 0,
        "tle_line1": "1 66500U 25263R   25345.25003472 -.01825778  00000+0 -43437-1 0  9998",
        "tle_line2": "2 66500  43.0003 133.9743 0001367 270.4192 288.3155 15.43995435  5398"
      },
      "geometry": {
        "type": "Point",
        "coordinates": [
          -3.219650849389939,
          -33.250373890163985
        ]
      }
    },
    {
      "type": "Feature",
      "properties": {
        "norad_id": 66501,
        "name": "STARLINK-35897",
        "group": "last-30-days",
        "lat": -33.62833932905503,
        "lon": 86.34746026282693,
        "alt_km": 427.0508802460854,
        "timestamp": "2025-12-11T13:55:00.913512+00:00",
        "meta_object_name": "STARLINK-35897",
        "meta_object_id": "2025-263S",
        "meta_epoch": "2025-12-11T06:00:02.999808",
        "meta_mean_motion": 15.48645119,
        "meta_eccentricity": 0.00015922,
        "meta_inclination": 43.0004,
        "meta_ra_of_asc_node": 133.8097,
        "meta_arg_of_pericenter": 258.7209,
        "meta_mean_anomaly": 6.809,
        "meta_ephemeris_type": 0,
        "meta_classification_type": "U",
        "meta_norad_cat_id": 66501,
        "meta_element_set_no": 999,
        "meta_rev_at_epoch": 539,
        "meta_bstar": -0.042526184,
        "meta_mean_motion_dot": -0.02071313,
        "meta_mean_motion_ddot": 0,
        "tle_line1": "1 66501U 25263S   25345.25003472 -.02071313  00000+0 -42526-1 0  9996",
        "tle_line2": "2 66501  43.0004 133.8097 0001592 258.7209   6.8090 15.48645119  5396"
      },
      "geometry": {
        "type": "Point",
        "coordinates": [
          86.34746026282693,
          -33.62833932905503
        ]
      }
    }
  ]
}